NORAD_CAT_ID,OBJECT_NAME,OBJECT_TYPE,EPOCH,MEAN_MOTION,ECCENTRICITY,INCLINATION,RA_OF_ASC_NODE,ARG_OF_PERICENTER,MEAN_ANOMALY,BSTAR,MEAN_MOTION_DOT,MEAN_MOTION_DDOT,TLE_LINE0,TLE_LINE1,TLE_LINE2,SEMIMAJOR_AXIS,PERIOD,APOGEE,PERIGEE,DECAYED
53026.0,STARLINK-4119,PAYLOAD,2022-11-10 19:53:45,15.08843415,0.0001842,53.2175,137.8283,56.7311,303.3857,-5.512899999999999e-05,-1.166e-05,0.0,0 STARLINK-4119,1 53026U 22076AS  22314.82900223 -.00001166  00000-0 -55129-4 0  9993,2 53026  53.2175 137.8283 0001842  56.7311 303.3857 15.08843415 19582,6917.87,95.437,541.009,538.461,0.0
53026.0,STARLINK-4119,PAYLOAD,2022-11-11 11:47:36,15.08848832,0.0002045,53.2174,134.8544,54.3531,305.7652,-4.199e-05,-9.57e-06,0.0,0 STARLINK-4119,1 53026U 22076AS  22315.49139687 -.00000957  00000-0 -41990-4 0  9993,2 53026  53.2174 134.8544 0002045  54.3531 305.7652 15.08848832 19680,6917.853,95.437,541.133,538.304,0.0
53026.0,STARLINK-4119,PAYLOAD,2022-11-11 19:44:32,15.08838316,0.0001801,53.2179,133.3681,53.691,306.4248,0.00018836,2.711e-05,0.0,0 STARLINK-4119,1 53026U 22076AS  22315.82259907  .00002711  00000-0  18836-3 0  9998,2 53026  53.2179 133.3681 0001801  53.6910 306.4248 15.08838316 20208,6917.886,95.438,540.996,538.505,0.0
53026.0,STARLINK-4119,PAYLOAD,2022-11-12 11:38:23,15.08849938,0.0001889,53.2177,130.3946,52.3241,307.7922,0.00024991,3.693e-05,0.0,0 STARLINK-4119,1 53026U 22076AS  22316.48499508  .00003693  00000-0  24991-3 0  9993,2 53026  53.2177 130.3946 0001889  52.3241 307.7922 15.08849938 19838,6917.85,95.437,541.0219999999998,538.408,0.0
53026.0,STARLINK-4119,PAYLOAD,2022-11-12 17:59:55,15.08854177,0.0001905,53.2178,129.2053,52.4834,307.6332,0.00027817,4.143e-05,0.0,0 STARLINK-4119,1 53026U 22076AS  22316.74995194  .00004143  00000-0  27817-3 0  9995,2 53026  53.2178 129.2053 0001905  52.4834 307.6332 15.08854177 20346,6917.837,95.437,541.02,538.384,0.0
53026.0,STARLINK-4119,PAYLOAD,2022-11-13 11:29:10,15.08851039,0.0001938,53.2177,125.9341,54.1127,306.0044,0.00014717,2.056e-05,0.0,0 STARLINK-4119,1 53026U 22076AS  22317.47858876  .00002056  00000-0  14717-3 0  9997,2 53026  53.2177 125.9341 0001938  54.1127 306.0044 15.08851039 20457,6917.847,95.437,541.052,538.371,0.0
53026.0,STARLINK-4119,PAYLOAD,2022-11-13 17:50:42,15.088513699999998,0.000187,53.2181,124.7441,55.4424,304.6745,9.0754e-05,1.157e-05,0.0,0 STARLINK-4119,1 53026U 22076AS  22317.74354637  .00001157  00000-0  90754-4 0  9990,2 53026  53.2181 124.7441 0001870  55.4424 304.6745 15.08851370 20022,6917.846,95.437,541.004,538.4169999999998,0.0
53026.0,STARLINK-4119,PAYLOAD,2022-11-14 11:19:57,15.08837213,0.0001939,53.2176,121.4735,52.1993,307.9175,-0.00010766,-2.001e-05,0.0,0 STARLINK-4119,1 53026U 22076AS  22318.47219278 -.00002001  00000-0 -10766-3 0  9997,2 53026  53.2176 121.4735 0001939  52.1993 307.9175 15.08837213 20132,6917.889,95.438,541.095,538.413,0.0
53026.0,STARLINK-4119,PAYLOAD,2022-11-14 17:41:29,15.08843033,0.0001806,53.2185,120.2834,56.8057,303.3108,-4.9899e-05,-1.082e-05,0.0,0 STARLINK-4119,1 53026U 22076AS  22318.73715256 -.00001082  00000-0 -49899-4 0  9991,2 53026  53.2185 120.2834 0001806  56.8057 303.3108 15.08843033 20171,6917.871,95.437,540.985,538.487,0.0
53026.0,STARLINK-4119,PAYLOAD,2022-11-14 22:27:39,15.08843876,0.0001751,53.2188,119.3911,54.6115,305.504,-4.7588e-05,-1.045e-05,0.0,0 STARLINK-4119,1 53026U 22076AS  22318.93587097 -.00001045  00000-0 -47588-4 0  9995,2 53026  53.2188 119.3911 0001751  54.6115 305.5040 15.08843876 20678,6917.869000000002,95.437,540.945,538.5219999999998,0.0
53026.0,STARLINK-4119,PAYLOAD,2022-11-15 12:46:07,15.08844097,0.000177,53.2186,116.7154,52.1486,307.9666,7.7221e-05,9.41e-06,0.0,0 STARLINK-4119,1 53026U 22076AS  22319.53202770  .00000941  00000-0  77221-4 0  9993,2 53026  53.2186 116.7154 0001770  52.1486 307.9666 15.08844097 20295,6917.868,95.437,540.957,538.508,0.0
53026.0,STARLINK-4119,PAYLOAD,2022-11-15 20:43:02,15.08844631,0.0001786,53.2186,115.2289,51.3363,308.7789,8.8736e-05,1.125e-05,0.0,0 STARLINK-4119,1 53026U 22076AS  22319.86322692  .00001125  00000-0  88736-4 0  9993,2 53026  53.2186 115.2289 0001786  51.3363 308.7789 15.08844631 20345,6917.866,95.437,540.967,538.496,0.0
53026.0,STARLINK-4119,PAYLOAD,2022-11-16 11:01:32,15.08831027,0.0001767,53.2188,112.553,51.0015,309.1135,5.293e-05,5.54e-06,0.0,0 STARLINK-4119,1 53026U 22076AS  22320.45939960  .00000554  00000-0  52930-4 0  9994,2 53026  53.2188 112.5530 0001767  51.0015 309.1135 15.08831027 20903,6917.908,95.438,540.995,538.55,0.0
53026.0,STARLINK-4119,PAYLOAD,2022-11-16 14:12:18,15.08832892,0.000177,53.2189,111.9585,51.2738,308.8412,7.0516e-05,8.34e-06,0.0,0 STARLINK-4119,1 53026U 22076AS  22320.59187796  .00000834  00000-0  70516-4 0  9992,2 53026  53.2189 111.9585 0001770  51.2738 308.8412 15.08832892 20450,6917.901999999999,95.438,540.992,538.543,0.0
53026.0,STARLINK-4119,PAYLOAD,2022-11-16 17:23:04,15.08837504,0.000171,53.2188,111.3634,50.5812,309.5331,9.6135e-05,1.242e-05,0.0,0 STARLINK-4119,1 53026U 22076AS  22320.72435476  .00001242  00000-0  96135-4 0  9997,2 53026  53.2188 111.3634 0001710  50.5812 309.5331 15.08837504 20944,6917.888000000001,95.438,540.936,538.57,0.0
53026.0,STARLINK-4119,PAYLOAD,2022-11-17 10:52:18,15.08847246,0.0001725,53.2189,108.0922,51.6894,308.4254,0.00014035,1.947e-05,0.0,0 STARLINK-4119,1 53026U 22076AS  22321.45298889  .00001947  00000-0  14035-3 0  9993,2 53026  53.2189 108.0922 0001725  51.6894 308.4254 15.08847246 21055,6917.858,95.437,540.9169999999998,538.53,0.0
53026.0,STARLINK-4119,PAYLOAD,2022-11-17 12:27:41,15.08848111,0.0001754,53.2182,107.795,51.6532,308.4618,0.00012219,1.658e-05,0.0,0 STARLINK-4119,1 53026U 22076AS  22321.51922707  .00001658  00000-0  12219-3 0  9994,2 53026  53.2182 107.7950 0001754  51.6532 308.4618 15.08848111 20590,6917.856,95.437,540.934,538.507,0.0
53026.0,STARLINK-4119,PAYLOAD,2022-11-17 18:49:13,15.08847814,0.0001767,53.2188,106.606,53.5388,306.5767,0.00011258,1.504e-05,0.0,0 STARLINK-4119,1 53026U 22076AS  22321.78418605  .00001504  00000-0  11258-3 0  9992,2 53026  53.2188 106.6060 0001767  53.5388 306.5767 15.08847814 20638,6917.857,95.437,540.944,538.499,0.0
53026.0,STARLINK-4119,PAYLOAD,2022-11-18 02:46:09,15.08836604,0.0001978,53.2187,105.119,50.2776,309.839,-3.9e-05,-9.09e-06,0.0,0 STARLINK-4119,1 53026U 22076AS  22322.11539208 -.00000909  00000-0 -39000-4 0  9999,2 53026  53.2187 105.1190 0001978  50.2776 309.8390 15.08836604 21155,6917.891,95.438,541.124,538.387,0.0
53026.0,STARLINK-4119,PAYLOAD,2022-11-18 09:07:42,15.08837273,0.0001764999999999,53.218,103.9289,48.7964,311.318,5.8872e-05,6.49e-06,0.0,0 STARLINK-4119,1 53026U 22076AS  22322.38035193  .00000649  00000-0  58872-4 0  9999,2 53026  53.2180 103.9289 0001765  48.7964 311.3180 15.08837273 20728,6917.889,95.438,540.975,538.533,0.0
53026.0,STARLINK-4119,PAYLOAD,2022-11-19 02:36:56,15.08850191,0.0001833,53.2183,100.6583,49.5484,310.5668,0.00018417,2.645e-05,0.0,0 STARLINK-4119,1 53026U 22076AS  22323.10898609  .00002645  00000-0  18417-3 0  9997,2 53026  53.2183 100.6583 0001833  49.5484 310.5668 15.08850191 21305,6917.849,95.437,540.982,538.446,0.0
53026.0,STARLINK-4119,PAYLOAD,2022-11-19 08:58:28,15.08853815,0.0001805,53.2182,99.4689,48.9016,311.2131,0.00021852,3.193e-05,0.0,0 STARLINK-4119,1 53026U 22076AS  22323.37394342  .00003193  00000-0  21852-3 0  9997,2 53026  53.2182  99.4689 0001805  48.9016 311.2131 15.08853815 20879,6917.8380000000025,95.437,540.952,538.4540000000002,0.0
53026.0,STARLINK-4119,PAYLOAD,2022-11-19 18:30:47,15.08846936,0.0001784,53.2178,97.6847,47.5964,312.5179,0.00015148,2.124e-05,0.0,0 STARLINK-4119,1 53026U 22076AS  22323.77138567  .00002124  00000-0  15148-3 0  9990,2 53026  53.2178  97.6847 0001784  47.5964 312.5179 15.08846936 21405,6917.859,95.437,540.9580000000002,538.49,0.0
53026.0,STARLINK-4119,PAYLOAD,2022-11-20 08:49:16,15.08840773,0.0001727,53.2188,95.0077,48.8802,311.2339,0.00025247,3.732e-05,0.0,0 STARLINK-4119,1 53026U 22076AS  22324.36754923  .00003732  00000-0  25247-3 0  9993,2 53026  53.2188  95.0077 0001727  48.8802 311.2339 15.08840773 21491,6917.878000000002,95.438,540.938,538.548,0.0
53026.0,STARLINK-4119,PAYLOAD,2022-11-20 19:56:58,15.08840515,0.0001736,53.2197,92.9269,48.6583,311.4558,2.8401e-05,1.64e-06,0.0,0 STARLINK-4119,1 53026U 22076AS  22324.83123011  .00000164  00000-0  28401-4 0  9995,2 53026  53.2197  92.9269 0001736  48.6583 311.4558 15.08840515 21099,6917.879,95.438,540.945,538.543,0.0
53026.0,STARLINK-4119,PAYLOAD,2022-11-21 08:40:03,15.08838367,0.0001774999999999,53.2196,90.5483,49.6879,310.4268,2.4777e-05,1.06e-06,0.0,0 STARLINK-4119,1 53026U 22076AS  22325.36115268  .00000106  00000-0  24777-4 0  9997,2 53026  53.2196  90.5483 0001775  49.6879 310.4268 15.08838367 21642,6917.885,95.438,540.9780000000002,538.5219999999998,0.0
53026.0,STARLINK-4119,PAYLOAD,2022-11-21 11:50:49,15.08836176,0.0001578,53.2197,89.9536,45.3596,314.7525,2.7458e-05,1.49e-06,0.0,0 STARLINK-4119,1 53026U 22076AS  22325.49363290  .00000149  00000-0  27458-4 0  9997,2 53026  53.2197  89.9536 0001578  45.3596 314.7525 15.08836176 21193,6917.892,95.438,540.849,538.665,0.0
53026.0,STARLINK-4119,PAYLOAD,2022-11-21 18:12:22,15.0883209,0.0001806,53.2195,88.7645,47.6348,312.4797,1.9204e-05,1.7e-07,0.0,0 STARLINK-4119,1 53026U 22076AS  22325.75859745  .00000017  00000-0  19204-4 0  9995,2 53026  53.2195  88.7645 0001806  47.6348 312.4797 15.08832090 21235,6917.905,95.438,541.019,538.52,0.0
53026.0,STARLINK-4119,PAYLOAD,2022-11-22 13:16:59,15.08849717,0.0001849,53.2198,85.1968,45.731,314.3834,1.567e-05,-3.9e-07,0.0,0 STARLINK-4119,1 53026U 22076AS  22326.55346647 -.00000039  00000-0  15670-4 0  9994,2 53026  53.2198  85.1968 0001849  45.7310 314.3834 15.08849717 21824,6917.851,95.437,540.995,538.437,0.0
